{
    "links": {
        "self": "http://www.neowsapp.com/rest/v1/neo/3760058?api_key=iIulBulltgU6a56xZRHN4H3l9WmuAYTsLGpBGhQ2"
    },
    "id": "3760058",
    "neo_reference_id": "3760058",
    "name": "(2016 SF35)",
    "designation": "2016 SF35",
    "nasa_jpl_url": "http://ssd.jpl.nasa.gov/sbdb.cgi?sstr=3760058",
    "absolute_magnitude_h": 23.0,
    "estimated_diameter": {
        "kilometers": {
            "estimated_diameter_min": 0.0667659413,
            "estimated_diameter_max": 0.1492931834
        },
        "meters": {
            "estimated_diameter_min": 66.7659413495,
            "estimated_diameter_max": 149.2931834393
        },
        "miles": {
            "estimated_diameter_min": 0.0414864197,
            "estimated_diameter_max": 0.0927664547
        },
        "feet": {
            "estimated_diameter_min": 219.0483710172,
            "estimated_diameter_max": 489.807047955
        }
    },
    "is_potentially_hazardous_asteroid": false,
    "close_approach_data": [
        {
            "close_approach_date": "2008-11-01",
            "close_approach_date_full": "2008-Nov-01 21:59",
            "epoch_date_close_approach": 1225576740000,
            "relative_velocity": {
                "kilometers_per_second": "4.9503478165",
                "kilometers_per_hour": "17821.2521392473",
                "miles_per_hour": "11073.433030634"
            },
            "miss_distance": {
                "astronomical": "0.2481214989",
                "lunar": "96.5192630721",
                "kilometers": "37118447.736647343",
                "miles": "23064333.9161776134"
            },
            "orbiting_body": "Earth"
        },
        {
            "close_approach_date": "2016-10-28",
            "close_approach_date_full": "2016-Oct-28 06:10",
            "epoch_date_close_approach": 1477635000000,
            "relative_velocity": {
                "kilometers_per_second": "4.3733026959",
                "kilometers_per_hour": "15743.8897053619",
                "miles_per_hour": "9782.6408005345"
            },
            "miss_distance": {
                "astronomical": "0.1819529357",
                "lunar": "70.7796919873",
                "kilometers": "27219771.620966959",
                "miles": "16913581.7920596742"
            },
            "orbiting_body": "Earth"
        },
        {
            "close_approach_date": "2024-10-23",
            "close_approach_date_full": "2024-Oct-23 21:28",
            "epoch_date_close_approach": 1729718880000,
            "relative_velocity": {
                "kilometers_per_second": "4.5684100149",
                "kilometers_per_hour": "16446.2760535261",
                "miles_per_hour": "10219.076362259"
            },
            "miss_distance": {
                "astronomical": "0.219964751",
                "lunar": "85.566288139",
                "kilometers": "32906258.22468037",
                "miles": "20447000.720794306"
            },
            "orbiting_body": "Earth"
        },
        {
            "close_approach_date": "2030-01-03",
            "close_approach_date_full": "2030-Jan-03 01:22",
            "epoch_date_close_approach": 1893633720000,
            "relative_velocity": {
                "kilometers_per_second": "8.2391937717",
                "kilometers_per_hour": "29661.0975779418",
                "miles_per_hour": "18430.252547805"
            },
            "miss_distance": {
                "astronomical": "0.0839420667",
                "lunar": "32.6534639463",
                "kilometers": "12557554.381717929",
                "miles": "7802902.4674042602"
            },
            "orbiting_body": "Mars"
        },
        {
            "close_approach_date": "2032-10-13",
            "close_approach_date_full": "2032-Oct-13 20:59",
            "epoch_date_close_approach": 1981313940000,
            "relative_velocity": {
                "kilometers_per_second": "4.7310149777",
                "kilometers_per_hour": "17031.6539195535",
                "miles_per_hour": "10582.8074035137"
            },
            "miss_distance": {
                "astronomical": "0.3309479793",
                "lunar": "128.7387639477",
                "kilometers": "49509112.784084091",
                "miles": "30763536.1599028158"
            },
            "orbiting_body": "Earth"
        }
    ],
    "orbital_data": {
        "orbit_id": "14",
        "orbit_determination_date": "2017-04-06 08:23:32",
        "first_observation_date": "2016-09-27",
        "last_observation_date": "2016-11-19",
        "data_arc_in_days": 53,
        "observations_used": 71,
        "orbit_uncertainty": "6",
        "minimum_orbit_intersection": ".180937",
        "jupiter_tisserand_invariant": "3.814",
        "epoch_osculation": "2459000.5",
        "eccentricity": ".3910824223333216",
        "semi_major_axis": "1.926329013162487",
        "inclination": "6.597265705080351",
        "ascending_node_longitude": "30.09958552448584",
        "orbital_period": "976.5491930950632",
        "perihelion_distance": "1.172975596483945",
        "perihelion_argument": "8.294398932933785",
        "aphelion_distance": "2.67968242984103",
        "perihelion_time": "2458669.204269022991",
        "mean_anomaly": "122.1305224509188",
        "mean_motion": ".3686450232568627",
        "equinox": "J2000",
        "orbit_class": {
            "orbit_class_type": "AMO",
            "orbit_class_description": "Near-Earth asteroid orbits similar to that of 1221 Amor",
            "orbit_class_range": "1.017 AU < q (perihelion) < 1.3 AU"
        }
    },
    "is_sentry_object": false
}